[
    {
        "Altitude(m)": 607895.7808775968,
        "Argument of Periapsis(deg)": 0.0,
        "Eccentricity": 0.0,
        "Inclination(deg)": 60.0,
        "Latitude(deg)": 40.99824070706177,
        "Longitude(deg)": -89.9113403240513,
        "Mean Anomaly(deg)": 130.9091,
        "RAAN(deg)": 220.00000000000003,
        "Satellite Name": "Test1 976",
        "Satellite Number": 976,
        "Semi-Major Axis(m)": 6980739.136638005,
        "Time(s)": 0
    },
    {
        "Altitude(m)": 607795.0937599293,
        "Argument of Periapsis(deg)": 0.00010418945913296404,
        "Eccentricity": 0.0,
        "Inclination(deg)": 60.0,
        "Latitude(deg)": 40.53056481833578,
        "Longitude(deg)": -89.41474744790798,
        "Mean Anomaly(deg)": 131.52920614546187,
        "RAAN(deg)": 219.99957995086027,
        "Satellite Name": "Test1 976",
        "Satellite Number": 976,
        "Semi-Major Axis(m)": 6980739.136638005,
        "Time(s)": 10
    }
]